{
  "type": "FeatureCollection",
  "features": [
    {
      "type": "Feature",
      "properties": {
        "norad_id": 66383,
        "name": "STARLINK-35690",
        "group": "last-30-days",
        "lat": -15.830348330814534,
        "lon": 120.99842537940144,
        "alt_km": 450.15300599723923,
        "timestamp": "2025-12-07T14:37:03.992405+00:00",
        "meta_object_name": "STARLINK-35690",
        "meta_object_id": "2025-257D",
        "meta_epoch": "2025-12-07T00:00:02.000160",
        "meta_mean_motion": 15.39586671,
        "meta_eccentricity": 0.00013014,
        "meta_inclination": 53.1612,
        "meta_ra_of_asc_node": 291.596,
        "meta_arg_of_pericenter": 95.4966,
        "meta_mean_anomaly": 326.7229,
        "meta_ephemeris_type": 0,
        "meta_classification_type": "U",
        "meta_norad_cat_id": 66383,
        "meta_element_set_no": 999,
        "meta_rev_at_epoch": 557,
        "meta_bstar": 0.00050903406,
        "meta_mean_motion_dot": 0.00019992,
        "meta_mean_motion_ddot": 0,
        "tle_line1": "1 66383U 25257D   25341.00002315  .00019992  00000+0  50903-3 0  9992",
        "tle_line2": "2 66383  53.1612 291.5960 0001301  95.4966 326.7229 15.39586671  5571"
      },
      "geometry": {
        "type": "Point",
        "coordinates": [
          120.99842537940144,
          -15.830348330814534
        ]
      }
    },
    {
      "type": "Feature",
      "properties": {
        "norad_id": 66384,
        "name": "STARLINK-35662",
        "group": "last-30-days",
        "lat": -17.26476065308727,
        "lon": 122.19610097426596,
        "alt_km": 450.3518896884925,
        "timestamp": "2025-12-07T14:37:03.992416+00:00",
        "meta_object_name": "STARLINK-35662",
        "meta_object_id": "2025-257E",
        "meta_epoch": "2025-12-07T00:00:02.000160",
        "meta_mean_motion": 15.39584144,
        "meta_eccentricity": 0.00011502,
        "meta_inclination": 53.1612,
        "meta_ra_of_asc_node": 291.5931,
        "meta_arg_of_pericenter": 91.9245,
        "meta_mean_anomaly": 332.1449,
        "meta_ephemeris_type": 0,
        "meta_classification_type": "U",
        "meta_norad_cat_id": 66384,
        "meta_element_set_no": 999,
        "meta_rev_at_epoch": 557,
        "meta_bstar": 0.00046387985,
        "meta_mean_motion_dot": 0.00018178,
        "meta_mean_motion_ddot": 0,
        "tle_line1": "1 66384U 25257E   25341.00002315  .00018178  00000+0  46388-3 0  9990",
        "tle_line2": "2 66384  53.1612 291.5931 0001150  91.9245 332.1449 15.39584144  5571"
      },
      "geometry": {
        "type": "Point",
        "coordinates": [
          122.19610097426596,
          -17.26476065308727
        ]
      }
    },
    {
      "type": "Feature",
      "properties": {
        "norad_id": 66385,
        "name": "STARLINK-35659",
        "group": "last-30-days",
        "lat": 2.9174337119481404,
        "lon": 106.58617273822043,
        "alt_km": 447.4132700677901,
        "timestamp": "2025-12-07T14:37:03.992428+00:00",
        "meta_object_name": "STARLINK-35659",
        "meta_object_id": "2025-257F",
        "meta_epoch": "2025-12-06T22:16:38.240832",
        "meta_mean_motion": 15.39680532,
        "meta_eccentricity": 0.00024153,
        "meta_inclination": 53.16,
        "meta_ra_of_asc_node": 291.9854,
        "meta_arg_of_pericenter": 81.1731,
        "meta_mean_anomaly": 278.9548,
        "meta_ephemeris_type": 0,
        "meta_classification_type": "U",
        "meta_norad_cat_id": 66385,
        "meta_element_set_no": 999,
        "meta_rev_at_epoch": 547,
        "meta_bstar": 0.0014839534,
        "meta_mean_motion_dot": 0.00059543,
        "meta_mean_motion_ddot": 0,
        "tle_line1": "1 66385U 25257F   25340.92822038  .00059543  00000+0  14840-2 0  9991",
        "tle_line2": "2 66385  53.1600 291.9854 0002415  81.1731 278.9548 15.39680532  5477"
      },
      "geometry": {
        "type": "Point",
        "coordinates": [
          106.58617273822043,
          2.9174337119481404
        ]
      }
    },
    {
      "type": "Feature",
      "properties": {
        "norad_id": 66386,
        "name": "STARLINK-35651",
        "group": "last-30-days",
        "lat": -34.91402271955312,
        "lon": 140.22627717957596,
        "alt_km": 451.91059313672486,
        "timestamp": "2025-12-07T14:37:03.992441+00:00",
        "meta_object_name": "STARLINK-35651",
        "meta_object_id": "2025-257G",
        "meta_epoch": "2025-12-07T00:00:02.000160",
        "meta_mean_motion": 15.39585031,
        "meta_eccentricity": 0.00012366,
        "meta_inclination": 53.1607,
        "meta_ra_of_asc_node": 291.545,
        "meta_arg_of_pericenter": 94.8784,
        "meta_mean_anomaly": 353.1033,
        "meta_ephemeris_type": 0,
        "meta_classification_type": "U",
        "meta_norad_cat_id": 66386,
        "meta_element_set_no": 999,
        "meta_rev_at_epoch": 557,
        "meta_bstar": 0.00058010238,
        "meta_mean_motion_dot": 0.00022847,
        "meta_mean_motion_ddot": 0,
        "tle_line1": "1 66386U 25257G   25341.00002315  .00022847  00000+0  58010-3 0  9995",
        "tle_line2": "2 66386  53.1607 291.5450 0001236  94.8784 353.1033 15.39585031  5576"
      },
      "geometry": {
        "type": "Point",
        "coordinates": [
          140.22627717957596,
          -34.91402271955312
        ]
      }
    },
    {
      "type": "Feature",
      "properties": {
        "norad_id": 66387,
        "name": "STARLINK-35661",
        "group": "last-30-days",
        "lat": -36.14440264434096,
        "lon": 141.8720584546596,
        "alt_km": 452.21552852390323,
        "timestamp": "2025-12-07T14:37:03.992452+00:00",
        "meta_object_name": "STARLINK-35661",
        "meta_object_id": "2025-257H",
        "meta_epoch": "2025-12-07T00:00:02.000160",
        "meta_mean_motion": 15.39584811,
        "meta_eccentricity": 0.00014906,
        "meta_inclination": 53.1608,
        "meta_ra_of_asc_node": 291.5416,
        "meta_arg_of_pericenter": 86.736,
        "meta_mean_anomaly": 3.07,
        "meta_ephemeris_type": 0,
        "meta_classification_type": "U",
        "meta_norad_cat_id": 66387,
        "meta_element_set_no": 999,
        "meta_rev_at_epoch": 557,
        "meta_bstar": 0.00056171355,
        "meta_mean_motion_dot": 0.00022108,
        "meta_mean_motion_ddot": 0,
        "tle_line1": "1 66387U 25257H   25341.00002315  .00022108  00000+0  56171-3 0  9992",
        "tle_line2": "2 66387  53.1608 291.5416 0001490  86.7360   3.0700 15.39584811  5579"
      },
      "geometry": {
        "type": "Point",
        "coordinates": [
          141.8720584546596,
          -36.14440264434096
        ]
      }
    },
    {
      "type": "Feature",
      "properties": {
        "norad_id": 66388,
        "name": "STARLINK-35647",
        "group": "last-30-days",
        "lat": -49.305135987003865,
        "lon": 169.28853542608235,
        "alt_km": 452.8816386026356,
        "timestamp": "2025-12-07T14:37:03.992464+00:00",
        "meta_object_name": "STARLINK-35647",
        "meta_object_id": "2025-257J",
        "meta_epoch": "2025-12-07T00:00:02.000160",
        "meta_mean_motion": 15.3958752,
        "meta_eccentricity": 0.00014117,
        "meta_inclination": 53.1603,
        "meta_ra_of_asc_node": 291.4936,
        "meta_arg_of_pericenter": 89.7205,
        "meta_mean_anomaly": 24.0056,
        "meta_ephemeris_type": 0,
        "meta_classification_type": "U",
        "meta_norad_cat_id": 66388,
        "meta_element_set_no": 999,
        "meta_rev_at_epoch": 557,
        "meta_bstar": 0.00051219879,
        "meta_mean_motion_dot": 0.0002012,
        "meta_mean_motion_ddot": 0,
        "tle_line1": "1 66388U 25257J   25341.00002315  .00020120  00000+0  51220-3 0  9995",
        "tle_line2": "2 66388  53.1603 291.4936 0001411  89.7205  24.0056 15.39587520  5572"
      },
      "geometry": {
        "type": "Point",
        "coordinates": [
          169.28853542608235,
          -49.305135987003865
        ]
      }
    },
    {
      "type": "Feature",
      "properties": {
        "norad_id": 66389,
        "name": "STARLINK-35694",
        "group": "last-30-days",
        "lat": -52.227756846885875,
        "lon": -146.78779275602642,
        "alt_km": 452.92610452535064,
        "timestamp": "2025-12-07T14:37:03.992474+00:00",
        "meta_object_name": "STARLINK-35694",
        "meta_object_id": "2025-257K",
        "meta_epoch": "2025-12-07T00:00:02.000160",
        "meta_mean_motion": 15.39594995,
        "meta_eccentricity": 0.00013509,
        "meta_inclination": 53.1596,
        "meta_ra_of_asc_node": 291.4376,
        "meta_arg_of_pericenter": 110.3988,
        "meta_mean_anomaly": 30.8997,
        "meta_ephemeris_type": 0,
        "meta_classification_type": "U",
        "meta_norad_cat_id": 66389,
        "meta_element_set_no": 999,
        "meta_rev_at_epoch": 557,
        "meta_bstar": 0.00055909782,
        "meta_mean_motion_dot": 0.0002201,
        "meta_mean_motion_ddot": 0,
        "tle_line1": "1 66389U 25257K   25341.00002315  .00022010  00000+0  55910-3 0  9996",
        "tle_line2": "2 66389  53.1596 291.4376 0001350 110.3988  30.8997 15.39594995  5576"
      },
      "geometry": {
        "type": "Point",
        "coordinates": [
          -146.78779275602642,
          -52.227756846885875
        ]
      }
    }
  ]
}